STARLINK-32589          
1 62183U 24225W   25126.61869685  .00000794  00000+0  74344-4 0  9995
2 62183  70.0008 218.8948 0003148 260.1912  99.8892 14.98332084 23871
STARLINK-32581          
1 62184U 24225X   25126.63736319 -.00003469  00000+0 -28326-3 0  9997
2 62184  70.0003 208.5517 0004114 266.5923  93.4766 14.98299225 24130
2024-226A               
1 62185U 24226A   25127.18306076 -.00000063  00000+0  94367-4 0  9998
2 62185  50.0073   0.6766 0056235 318.2328  41.4273 13.60125919 21452
2024-226B               
1 62186U 24226B   25126.89466335 -.00000068  00000+0  10675-3 0  9995
2 62186  50.0078  17.2590 0011303 284.9649  74.9977 13.41458061 21176
TJS-13                  
1 62188U 24227A   25122.66396766  .00000566  00000+0  00000+0 0  9998
2 62188  63.4884  88.7255 7030176 269.5524  16.8841  2.00613226  3016
HAISHAO-1               
1 62190U 24228A   25126.85568036  .00040215  00000+0  39371-3 0  9990
2 62190  42.9934 275.0524 0006380 310.8820  49.1492 15.65390112 23901
STARLINK-32686          
1 62192U 24229A   25127.22544050 -.00007402  00000+0 -25951-3 0  9997
2 62192  42.9984 197.8363 0001334 276.8474  83.2226 15.27608469 24865
STARLINK-32688          
1 62193U 24229B   25127.24295232 -.00002052  00000+0 -65058-4 0  9994
2 62193  43.0014 201.4244 0000916 287.6611  72.4140 15.27578478 24759
STARLINK-32684          
1 62194U 24229C   25126.56338948  .00001060  00000+0  48037-4 0  9995
2 62194  42.9987 204.9249 0001154 268.7021  91.3698 15.27571477 24772
STARLINK-32672          
1 62195U 24229D   25127.23138726 -.00002251  00000+0 -72316-4 0  9995
2 62195  43.0014 201.3379 0001019 255.1219 104.9520 15.27576939 24717
STARLINK-32682          
1 62196U 24229E   25127.19523718 -.00000271  00000+0  76914-6 0  9999
2 62196  43.0007 172.9764 0001346 272.5296  87.5407 15.40692294 25036
STARLINK-32663          
1 62197U 24229F   25126.28399644  .00002456  00000+0  98756-4 0  9990
2 62197  43.0012 207.1281 0001859 279.9811  80.0831 15.27575663 23549
STARLINK-32640          
1 62198U 24229G   25127.22367640 -.00002822  00000+0 -93058-4 0  9996
2 62198  42.9970 201.2776 0001023 294.4081  65.6664 15.27586026 24728
STARLINK-32653          
1 62199U 24229H   25126.65672003 -.00000349  00000+0 -31565-5 0  9993
2 62199  43.0022 197.7989 0001039 231.5588 128.5170 15.27574610 23686
STARLINK-32647          
1 62200U 24229J   25127.24551757 -.00004728  00000+0 -16240-3 0  9990
2 62200  42.9981 201.4397 0000055 342.9799  17.1050 15.27582658 24755
STARLINK-32667          
1 62201U 24229K   25127.20954338 -.00000521  00000+0 -93984-5 0  9998
2 62201  43.0035 201.1775 0001599 280.3133  79.7539 15.27568914 24728
STARLINK-32655          
1 62202U 24229L   25126.53783646 -.00000047  00000+0  78396-5 0  9998
2 62202  43.0023 205.5909 0001597 258.3467 101.7205 15.27565679 23580
STARLINK-32665          
1 62203U 24229M   25127.23909288 -.00001884  00000+0 -58946-4 0  9998
2 62203  42.9992 201.3935 0001082 262.0482  98.0247 15.27580603 24832
STARLINK-32664          
1 62204U 24229N   25127.24937202 -.00008465  00000+0 -29822-3 0  9999
2 62204  43.0015 201.4679 0000262   9.4620 350.6236 15.27604411 24720
STARLINK-32660          
1 62205U 24229P   25126.64672607  .00000089  00000+0  93940-5 0  9994
2 62205  43.0007 192.5495 0001288 260.0063 100.0648 15.40694215 23744
STARLINK-32448          
1 62206U 24229Q   25126.69031043 -.00000961  00000+0 -25406-4 0  9995
2 62206  42.9983 204.1540 0001094 293.1710  66.9026 15.27572703 23616
STARLINK-32430          
1 62207U 24229R   25127.18575359 -.00000959  00000+0 -25318-4 0  9993
2 62207  43.0010 198.3933 0001621 204.5150 155.5625 15.27572835 24785
STARLINK-32675          
1 62208U 24229S   25127.23524166 -.00002426  00000+0 -78679-4 0  9999
2 62208  43.0005 201.3650 0000565 282.7000  77.3788 15.27579930 24828
STARLINK-32671          
1 62209U 24229T   25127.20583127 -.00002377  00000+0 -76846-4 0  9998
2 62209  43.0018 202.0010 0001373 265.7117  94.3578 15.27588994 24870
STARLINK-32670          
1 62210U 24229U   25126.50828080  .00002166  00000+0  88196-4 0  9997
2 62210  42.9998 205.3699 0000761 213.7704 146.3099 15.27583759 23588
STARLINK-32642          
1 62211U 24229V   25127.22110606 -.00000768  00000+0 -18404-4 0  9999
2 62211  42.9988 201.2572 0001113 272.2890  87.7835 15.27574381 24758
STARLINK-32668          
1 62212U 24229W   25126.66652708 -.00001609  00000+0 -48963-4 0  9999
2 62212  43.0000 201.3830 0001041 254.4252 105.6484 15.27573437 23646
STARLINK-32669          
1 62213U 24229X   25126.67246639  .00000102  00000+0  13250-4 0  9999
2 62213  43.0014 204.8820 0001275 269.0237  91.0468 15.27568037 23609
STARLINK-32666          
1 62214U 24229Y   25126.54811151 -.00000152  00000+0  40027-5 0  9992
2 62214  43.0016 205.6655 0001452 270.0602  90.0083 15.27575546 23584
STARLINK-32662          
1 62215U 24229Z   25127.25319017 -.00022551  00000+0 -80936-3 0  9995
2 62215  42.9971 201.4949 0001674 103.9925 256.1113 15.27702621 24712
COSMOS 2580             
1 62216U 24230A   25126.85070637 -.00000015  00000+0  43643-4 0  9990
2 62216  67.1458 318.4374 0005475 266.4161  93.6297 13.96676184 21399
STARLINK-11394 [DTC]    
1 62218U 24231A   25126.37246081 -.00000847  00000+0 -21370-5 0  9996
2 62218  53.1582 176.2462 0001105  76.1781 283.9360 15.69704006 25141
STARLINK-11490 [DTC]    
1 62219U 24231B   25127.14139433 -.00001991  00000+0 -11570-4 0  9996
2 62219  53.1591 172.5119 0001336  78.3069 281.8099 15.69720511 25278
STARLINK-11466 [DTC]    
1 62220U 24231C   25127.15120737 -.00000320  00000+0  22113-5 0  9996
2 62220  53.1592 172.5737 0000670  60.8159 299.2926 15.69710119 25212
STARLINK-11468 [DTC]    
1 62221U 24231D   25126.52432869 -.00000790  00000+0 -16669-5 0  9990
2 62221  53.1593 175.7766 0001124  80.4884 279.6260 15.69703218 25168
STARLINK-11488 [DTC]    
1 62222U 24231E   25127.14629954  .00000591  00000+0  97414-5 0  9997
2 62222  53.1585 172.5448 0001288  64.9153 295.1998 15.69708267 25002
STARLINK-11483 [DTC]    
1 62223U 24231F   25127.11195942  .00008177  00000+0  72238-4 0  9994
2 62223  53.1572 172.3163 0001711  83.3027 276.8186 15.69726614 25288
STARLINK-11492 [DTC]    
1 62224U 24231G   25127.15610706  .00001727  00000+0  19103-4 0  9995
2 62224  53.1581 172.6150 0000886  81.4824 278.6294 15.69714018 25234
STARLINK-11471 [DTC]    
1 62225U 24231H   25126.54384573 -.00000252  00000+0  27782-5 0  9994
2 62225  53.1585 175.1851 0001233  86.9321 273.1837 15.69709924 25170
STARLINK-11475 [DTC]    
1 62226U 24231J   25127.12177263  .00000003  00000+0  48827-5 0  9992
2 62226  53.1582 172.3786 0001280  80.9585 279.1578 15.69709456 25215
STARLINK-11469 [DTC]    
1 62227U 24231K   25126.43122415  .00001193  00000+0  14716-4 0  9995
2 62227  53.1592 175.8979 0001261  92.5218 267.5944 15.69698922 25156
STARLINK-11476 [DTC]    
1 62228U 24231L   25126.53404127 -.00005735  00000+0 -42559-4 0  9994
2 62228  53.1574 175.1029 0001226  91.5040 268.6118 15.69682218 25188
STARLINK-11485 [DTC]    
1 62229U 24231M   25127.12668567 -.00000763  00000+0 -14420-5 0  9994
2 62229  53.1591 172.4077 0001120  98.5115 261.6030 15.69693149 25006
STARLINK-11481 [DTC]    
1 62230U 24231N   25127.10225339 -.00000820  00000+0 -19064-5 0  9993
2 62230  53.1585 172.9807 0001194  82.8625 277.2529 15.69709214 25197
STARLINK-32650          
1 62231U 24231P   25127.21850288  .00001609  00000+0  66445-4 0  9991
2 62231  53.1598 203.3444 0001220  77.6854 282.4283 15.30189905 24814
STARLINK-32636          
1 62232U 24231Q   25126.65590164 -.00001178  00000+0 -27681-4 0  9995
2 62232  53.1601 205.5282 0001367  99.7648 260.3507 15.30179885 24766
STARLINK-32643          
1 62233U 24231R   25127.23462415 -.00001212  00000+0 -20324-4 0  9994
2 62233  53.1604 201.3191 0000961  69.8718 290.2390 15.39626460 24844
STARLINK-32652          
1 62234U 24231S   25126.41784190 -.00001422  00000+0 -35899-4 0  9997
2 62234  53.1605 206.8794 0001235  84.5833 275.5309 15.30197556 24714
STARLINK-32631          
1 62235U 24231T   25126.39969781 -.00001398  00000+0 -24982-4 0  9999
2 62235  53.1610 205.3497 0001333 101.6382 258.4773 15.39616037 24730
STARLINK-32641          
1 62236U 24231U   25127.21107521 -.00000688  00000+0 -72251-5 0  9992
2 62236  53.1597 201.1659 0000465  22.3278 337.7747 15.39616227 24831
QIANFAN-37              
1 62238U 24232B   25126.87057886  .00000140  00000+0  19800-3 0  9994
2 62238  88.9960  63.6003 0018586 111.9228 248.3901 13.50948890 69484
QIANFAN-38              
1 62239U 24232C   25126.89521338  .00000146  00000+0  20766-3 0  9994
2 62239  88.9966  63.4988 0016600 106.4562 253.8415 13.50951808 69547
QIANFAN-39              
1 62240U 24232D   25126.88417648  .00000751  00000+0  31330-3 0  9994
2 62240  88.9962  62.5281 0018775  79.1721 281.1584 14.25158525 70078
QIANFAN-40              
1 62241U 24232E   25127.08033604  .00000193  00000+0  22313-3 0  9995
2 62241  88.9957  62.8455 0017936  78.9604 281.3571 13.64885567 69918
QIANFAN-41              
1 62242U 24232F   25126.86229440  .00000150  00000+0  21327-3 0  9993
2 62242  88.9964  63.4584 0016082 102.9146 257.3802 13.50950447 69563
QIANFAN-42              
1 62243U 24232G   25126.88448729  .00000731  00000+0  31000-3 0  9993
2 62243  88.9960  62.5437 0017615  83.2686 277.0510 14.24266243 70079
QIANFAN-43              
1 62244U 24232H   25126.85817065  .00000154  00000+0  21903-3 0  9994
2 62244  88.9969  63.5144 0017469 107.8388 252.4670 13.50953499 38177
QIANFAN-44              
1 62245U 24232J   25126.91121720  .00000137  00000+0  19755-3 0  9991
2 62245  88.9967  63.3212 0015835 105.0066 255.2838 13.49482290 69656
QIANFAN-45              
1 62246U 24232K   25126.95986257  .00000148  00000+0  21126-3 0  9997
2 62246  88.9971  63.4568 0016389 104.9539 255.3427 13.50499893 69581
